ONEWEB-0393             
1 50473U 21132E   23256.87203795  .00000022  00000+0  22389-4 0  9998
2 50473  87.9226 205.9862 0002040  69.9386 290.1965 13.17647697 85459
ONEWEB-0394             
1 50474U 21132F   23256.83729313  .00000049  00000+0  91720-4 0  9998
2 50474  87.9299 175.7689 0001727  74.3184 285.8139 13.18687442 88830
ONEWEB-0395             
1 50475U 21132G   23256.89615657  .00000573  00000+0  15799-2 0  9992
2 50475  87.8934 221.1808 0001927  73.5646 286.5694 13.11416660 83699
ONEWEB-0396             
1 50476U 21132H   23256.83097495  .00000020  00000+0  17911-4 0  9998
2 50476  87.9298 175.7620 0001671  77.1592 282.9727 13.18685322 88878
ONEWEB-0397             
1 50477U 21132J   23256.84572443  .00000076  00000+0  15924-3 0  9993
2 50477  87.9301 175.7602 0001572  77.6688 282.4620 13.18686604 88854
ONEWEB-0398             
1 50478U 21132K   23256.86435250 -.00000388  00000+0 -11293-2 0  9992
2 50478  87.8933 221.1812 0002088  64.9991 295.1354 13.11418201 83582
ONEWEB-0399             
1 50479U 21132L   23256.92793315 -.00000454  00000+0 -13172-2 0  9991
2 50479  87.8932 221.1803 0002003  90.9549 269.1808 13.11420545 83586
ONEWEB-0400             
1 50480U 21132M   23256.82465172  .00000072  00000+0  14866-3 0  9995
2 50480  87.9225 175.7988 0002037  68.4877 291.6472 13.18686571 88844
